{
  "type": "FeatureCollection",
  "features": [
    {
      "type": "Feature",
      "properties": {
        "norad_id": 33605,
        "name": "FENGYUN 1C DEB",
        "group": "fengyun-1c-debris",
        "lat": -33.09976103883415,
        "lon": -0.6118299023566003,
        "alt_km": 869.4052697379057,
        "timestamp": "2025-12-20T22:39:10.911507+00:00",
        "meta_object_name": "FENGYUN 1C DEB",
        "meta_object_id": "1999-025DCN",
        "meta_epoch": "2025-12-10T07:01:31.719072",
        "meta_mean_motion": 14.0776111,
        "meta_eccentricity": 0.0057186,
        "meta_inclination": 98.6977,
        "meta_ra_of_asc_node": 343.4026,
        "meta_arg_of_pericenter": 81.9564,
        "meta_mean_anomaly": 295.3635,
        "meta_ephemeris_type": 0,
        "meta_classification_type": "U",
        "meta_norad_cat_id": 33605,
        "meta_element_set_no": 999,
        "meta_rev_at_epoch": 59784,
        "meta_bstar": 0.00085517,
        "meta_mean_motion_dot": 1.428e-05,
        "meta_mean_motion_ddot": 0,
        "tle_line1": "1 33605U 99025DCN 25344.29272823  .00001428  00000+0  85517-3 0  9998",
        "tle_line2": "2 33605  98.6977 343.4026 0057186  81.9564 295.3635 14.07761110597841"
      },
      "geometry": {
        "type": "Point",
        "coordinates": [
          -0.6118299023566003,
          -33.09976103883415
        ]
      }
    },
    {
      "type": "Feature",
      "properties": {
        "norad_id": 33612,
        "name": "FENGYUN 1C DEB",
        "group": "fengyun-1c-debris",
        "lat": -4.220253276509351,
        "lon": 143.08101181072135,
        "alt_km": 893.8724794602558,
        "timestamp": "2025-12-20T22:39:10.911516+00:00",
        "meta_object_name": "FENGYUN 1C DEB",
        "meta_object_id": "1999-025DCV",
        "meta_epoch": "2025-12-13T20:28:43.869792",
        "meta_mean_motion": 14.04084486,
        "meta_eccentricity": 0.01112826,
        "meta_inclination": 98.5972,
        "meta_ra_of_asc_node": 317.0094,
        "meta_arg_of_pericenter": 105.6891,
        "meta_mean_anomaly": 255.6586,
        "meta_ephemeris_type": 0,
        "meta_classification_type": "U",
        "meta_norad_cat_id": 33612,
        "meta_element_set_no": 999,
        "meta_rev_at_epoch": 56689,
        "meta_bstar": 0.0022025481,
        "meta_mean_motion_dot": 3.646e-05,
        "meta_mean_motion_ddot": 0,
        "tle_line1": "1 33612U 99025DCV 25347.85328553  .00003646  00000+0  22025-2 0  9991",
        "tle_line2": "2 33612  98.5972 317.0094 0111282 105.6891 255.6586 14.04084486566896"
      },
      "geometry": {
        "type": "Point",
        "coordinates": [
          143.08101181072135,
          -4.220253276509351
        ]
      }
    },
    {
      "type": "Feature",
      "properties": {
        "norad_id": 33613,
        "name": "FENGYUN 1C DEB",
        "group": "fengyun-1c-debris",
        "lat": 72.03367437251671,
        "lon": -85.14256191682516,
        "alt_km": 757.5360393805922,
        "timestamp": "2025-12-20T22:39:10.911525+00:00",
        "meta_object_name": "FENGYUN 1C DEB",
        "meta_object_id": "1999-025DCW",
        "meta_epoch": "2025-12-16T22:39:46.027872",
        "meta_mean_motion": 14.33243029,
        "meta_eccentricity": 0.00302029,
        "meta_inclination": 98.6973,
        "meta_ra_of_asc_node": 62.6736,
        "meta_arg_of_pericenter": 76.3387,
        "meta_mean_anomaly": 284.1157,
        "meta_ephemeris_type": 0,
        "meta_classification_type": "U",
        "meta_norad_cat_id": 33613,
        "meta_element_set_no": 999,
        "meta_rev_at_epoch": 64570,
        "meta_bstar": 0.001526734,
        "meta_mean_motion_dot": 4.177e-05,
        "meta_mean_motion_ddot": 0,
        "tle_line1": "1 33613U 99025DCW 25350.94428273  .00004177  00000+0  15267-2 0  9996",
        "tle_line2": "2 33613  98.6973  62.6736 0030202  76.3387 284.1157 14.33243029645702"
      },
      "geometry": {
        "type": "Point",
        "coordinates": [
          -85.14256191682516,
          72.03367437251671
        ]
      }
    },
    {
      "type": "Feature",
      "properties": {
        "norad_id": 33618,
        "name": "FENGYUN 1C DEB",
        "group": "fengyun-1c-debris",
        "lat": 52.419818106373434,
        "lon": -86.2043741146316,
        "alt_km": 566.8500119701139,
        "timestamp": "2025-12-20T22:39:10.911534+00:00",
        "meta_object_name": "FENGYUN 1C DEB",
        "meta_object_id": "1999-025DDB",
        "meta_epoch": "2025-12-20T12:13:52.336128",
        "meta_mean_motion": 14.62199393,
        "meta_eccentricity": 0.01650351,
        "meta_inclination": 98.5307,
        "meta_ra_of_asc_node": 82.0998,
        "meta_arg_of_pericenter": 116.4572,
        "meta_mean_anomaly": 245.3665,
        "meta_ephemeris_type": 0,
        "meta_classification_type": "U",
        "meta_norad_cat_id": 33618,
        "meta_element_set_no": 999,
        "meta_rev_at_epoch": 96897,
        "meta_bstar": 0.00052111598,
        "meta_mean_motion_dot": 3.133e-05,
        "meta_mean_motion_ddot": 0,
        "tle_line1": "1 33618U 99025DDB 25354.50963352  .00003133  00000+0  52112-3 0  9991",
        "tle_line2": "2 33618  98.5307  82.0998 0165035 116.4572 245.3665 14.62199393968974"
      },
      "geometry": {
        "type": "Point",
        "coordinates": [
          -86.2043741146316,
          52.419818106373434
        ]
      }
    },
    {
      "type": "Feature",
      "properties": {
        "norad_id": 33619,
        "name": "FENGYUN 1C DEB",
        "group": "fengyun-1c-debris",
        "lat": 50.538647288588464,
        "lon": -104.75512347027552,
        "alt_km": 838.9358809344658,
        "timestamp": "2025-12-20T22:39:10.911543+00:00",
        "meta_object_name": "FENGYUN 1C DEB",
        "meta_object_id": "1999-025DDC",
        "meta_epoch": "2025-12-19T22:20:10.311360",
        "meta_mean_motion": 14.17540462,
        "meta_eccentricity": 0.0050361,
        "meta_inclination": 98.8617,
        "meta_ra_of_asc_node": 63.3101,
        "meta_arg_of_pericenter": 25.2584,
        "meta_mean_anomaly": 335.1037,
        "meta_ephemeris_type": 0,
        "meta_classification_type": "U",
        "meta_norad_cat_id": 33619,
        "meta_element_set_no": 999,
        "meta_rev_at_epoch": 63726,
        "meta_bstar": 0.00090921,
        "meta_mean_motion_dot": 1.825e-05,
        "meta_mean_motion_ddot": 0,
        "tle_line1": "1 33619U 99025DDC 25353.93067490  .00001825  00000+0  90921-3 0  9992",
        "tle_line2": "2 33619  98.8617  63.3101 0050361  25.2584 335.1037 14.17540462637268"
      },
      "geometry": {
        "type": "Point",
        "coordinates": [
          -104.75512347027552,
          50.538647288588464
        ]
      }
    },
    {
      "type": "Feature",
      "properties": {
        "norad_id": 33621,
        "name": "FENGYUN 1C DEB",
        "group": "fengyun-1c-debris",
        "lat": 81.02678416370544,
        "lon": 90.04607109587796,
        "alt_km": 1024.140816175336,
        "timestamp": "2025-12-20T22:39:10.911552+00:00",
        "meta_object_name": "FENGYUN 1C DEB",
        "meta_object_id": "1999-025DDE",
        "meta_epoch": "2025-12-10T20:17:14.702784",
        "meta_mean_motion": 14.19482835,
        "meta_eccentricity": 0.02846988,
        "meta_inclination": 98.1391,
        "meta_ra_of_asc_node": 195.7496,
        "meta_arg_of_pericenter": 300.0128,
        "meta_mean_anomaly": 57.3079,
        "meta_ephemeris_type": 0,
        "meta_classification_type": "U",
        "meta_norad_cat_id": 33621,
        "meta_element_set_no": 999,
        "meta_rev_at_epoch": 64217,
        "meta_bstar": 0.00099524636,
        "meta_mean_motion_dot": 3.099e-05,
        "meta_mean_motion_ddot": 0,
        "tle_line1": "1 33621U 99025DDE 25344.84530906  .00003099  00000+0  99525-3 0  9996",
        "tle_line2": "2 33621  98.1391 195.7496 0284698 300.0128  57.3079 14.19482835642176"
      },
      "geometry": {
        "type": "Point",
        "coordinates": [
          90.04607109587796,
          81.02678416370544
        ]
      }
    },
    {
      "type": "Feature",
      "properties": {
        "norad_id": 33625,
        "name": "FENGYUN 1C DEB",
        "group": "fengyun-1c-debris",
        "lat": 57.12318173846261,
        "lon": -60.48187927944008,
        "alt_km": 527.7562498040934,
        "timestamp": "2025-12-20T22:39:10.911561+00:00",
        "meta_object_name": "FENGYUN 1C DEB",
        "meta_object_id": "1999-025DDJ",
        "meta_epoch": "2025-12-17T18:30:25.862688",
        "meta_mean_motion": 14.61094935,
        "meta_eccentricity": 0.02257102,
        "meta_inclination": 98.6203,
        "meta_ra_of_asc_node": 102.638,
        "meta_arg_of_pericenter": 119.7403,
        "meta_mean_anomaly": 242.6462,
        "meta_ephemeris_type": 0,
        "meta_classification_type": "U",
        "meta_norad_cat_id": 33625,
        "meta_element_set_no": 999,
        "meta_rev_at_epoch": 61464,
        "meta_bstar": 0.00092873472,
        "meta_mean_motion_dot": 6.506e-05,
        "meta_mean_motion_ddot": 0,
        "tle_line1": "1 33625U 99025DDJ 25351.77113267  .00006506  00000+0  92873-3 0  9992",
        "tle_line2": "2 33625  98.6203 102.6380 0225710 119.7403 242.6462 14.61094935614640"
      },
      "geometry": {
        "type": "Point",
        "coordinates": [
          -60.48187927944008,
          57.12318173846261
        ]
      }
    }
  ]
}